ONEWEB-0444             
1 51638U 22012S   23320.69911736 -.00000573  00000+0 -16786-2 0  9998
2 51638  87.8933 223.6513 0001601  65.4718 294.6576 13.10373208 85778
ONEWEB-0445             
1 51639U 22012T   23321.48384868  .00000487  00000+0  13577-2 0  9994
2 51639  87.8923 223.4815 0001974  81.8754 278.2598 13.10374317 87165
ONEWEB-0446             
1 51640U 22012U   23321.15565630 -.00000470  00000+0 -13820-2 0  9993
2 51640  87.8932 223.5514 0001631  78.7560 281.3750 13.10374870 87129
ONEWEB-0448             
1 51641U 22012V   23321.16052919 -.00000201  00000+0 -61129-3 0  9994
2 51641  87.8932 223.5524 0001670  64.9971 295.1330 13.10376935 87083
ONEWEB-0449             
1 51642U 22012W   23321.16539924 -.00000131  00000+0 -41048-3 0  9991
2 51642  87.8933 223.5556 0001928  69.7978 290.3356 13.10379640 87100
ONEWEB-0451             
1 51643U 22012X   23320.92948651  .00000013  00000+0  44676-6 0  9996
2 51643  87.9229 193.3580 0001658  68.9697 291.1612 13.17651019 89443
ONEWEB-0452             
1 51644U 22012Y   23321.15517870  .00000158  00000+0  37277-3 0  9994
2 51644  87.9236 193.3401 0001996  71.2777 288.8571 13.17648321 90783
ONEWEB-0455             
1 51645U 22012Z   23321.35632995  .00000296  00000+0  12461-3 0  9994
2 51645  87.5373 177.7522 0015769 322.7119  37.2975 14.22641021 93323
